[{"OBJECT_NAME":"ONEWEB-0197","OBJECT_ID":"2021-031AC","EPOCH":"2026-03-09T17:46:17.421888","MEAN_MOTION":13.1450267,"ECCENTRICITY":0.00014829,"INCLINATION":87.8986,"RA_OF_ASC_NODE":309.5336,"ARG_OF_PERICENTER":70.4659,"MEAN_ANOMALY":289.6631,"EPHEMERIS_TYPE":0,"CLASSIFICATION_TYPE":"U","NORAD_CAT_ID":48236,"ELEMENT_SET_NO":999,"REV_AT_EPOCH":23512,"BSTAR":0.00063687868,"MEAN_MOTION_DOT":2.49e-6,"MEAN_MOTION_DDOT":0},{"OBJECT_NAME":"CZ-4C DEB","OBJECT_ID":"2012-029E","EPOCH":"2026-03-09T15:30:02.575296","MEAN_MOTION":13.08839558,"ECCENTRICITY":0.0138685,"INCLINATION":100.2133,"RA_OF_ASC_NODE":10.0709,"ARG_OF_PERICENTER":350.8996,"MEAN_ANOMALY":8.9605,"EPHEMERIS_TYPE":0,"CLASSIFICATION_TYPE":"U","NORAD_CAT_ID":38663,"ELEMENT_SET_NO":999,"REV_AT_EPOCH":59690,"BSTAR":0.00022991,"MEAN_MOTION_DOT":4.0e-7,"MEAN_MOTION_DDOT":0}]
